SL-14 R/B               
1 20466U 90010B   26192.85190399  .00000210  00000+0  22503-4 0  9990
2 20466  82.5033 150.7818 0018257 249.1641 110.7619 14.83661917946898
SL-14 R/B               
1 20511U 90018B   26193.19179806  .00000213  00000+0  23652-4 0  9996
2 20511  82.5220 106.7376 0017240  46.1199 314.1435 14.82232884941023
HST                     
1 20580U 90037B   26192.65455861  .00004090  00000+0  12505-3 0  9992
2 20580  28.4731 273.3159 0002083  72.1261 287.9563 15.31037779792320
SL-16 R/B               
1 20625U 90046B   26192.97287260  .00000110  00000+0  81407-4 0  9990
2 20625  70.9983  36.8922 0012452 120.0201 240.2159 14.15023251865975
COSMOS 2084             
1 20663U 90055A   26193.22392597  .00000964  00000+0  79189-4 0  9992
2 20663  62.7888 270.6306 0007704 315.3139  44.7340 15.06217134955073
SL-6 R/B(2)             
1 20666U 90055D   26192.98140559  .00001054  00000+0  88953-4 0  9996
2 20666  62.7801 190.9985 0044622   8.5682 351.6169 15.04079972956885
SL-8 R/B                
1 20775U 90078B   26192.85914318  .00013322  00000+0  37734-3 0  9991
2 20775  82.9024 139.3313 0344071 314.9132  42.4627 14.93497547827806
SL-8 R/B                
1 21088U 91006B   26193.14323001  .00000071  00000+0  55864-4 0  9999
2 21088  82.9412  77.4672 0023578  48.6552 114.2035 13.77508751781203
OKEAN-3                 
1 21397U 91039A   26193.06497448  .00001549  00000+0  10586-3 0  9998
2 21397  82.5138 216.2543 0012184 266.5112  93.4721 15.05424007883747
COSMOS 2151             
1 21422U 91042A   26193.20085097  .00000746  00000+0  56969-4 0  9994
2 21422  82.4978 323.5403 0012258   5.6658 354.4703 15.00508537881860
SL-14 R/B               
1 21423U 91042B   26193.20365154  .00000178  00000+0  19493-4 0  9990
2 21423  82.4934 103.4370 0016712 186.7796 173.3195 14.81917065871516
ERS-1                   
1 21574U 91050A   26193.04843705  .00000144  00000+0  60603-4 0  9993
2 21574  98.7795 214.3534 0031688 191.1372 168.9117 14.39531546833624
ARIANE 40 R/B           
1 21610U 91050F   26193.15093977  .00000127  00000+0  50412-4 0  9992
2 21610  98.1864 240.5938 0004264  68.0686 292.0958 14.42970859836943
INTERCOSMOS 25          
1 21819U 91086A   26193.03900473  .00000648  00000+0  12612-3 0  9994
2 21819  82.6013 234.7710 1484414 208.7377 142.3468 12.12238085511756
SL-8 R/B                
1 21876U 92008B   26192.91362725  .00000114  00000+0  10133-3 0  9994
2 21876  82.9270 175.4030 0035469 145.5721 233.3019 13.75983091726503
SL-8 R/B                
1 21938U 92020B   26193.09479949  .00000032  00000+0  17835-4 0  9990
2 21938  82.9287  61.3543 0028079 312.6073 199.8214 13.75550283718235
USA 81                  
1 21949U 92023A   26193.07376221  .00000109  00000+0  32821-4 0  9999
2 21949  85.0053  59.6411 0002114  65.7884 294.3529 14.32404401112595
COSMOS 2219             
1 22219U 92076A   26193.16084852 -.00000173  00000+0 -65874-4 0  9991
2 22219  71.0615 117.8665 0018072   2.1853 357.9345 14.14109574735972
SL-16 R/B               
1 22220U 92076B   26193.22685610  .00000229  00000+0  13807-3 0  9997
2 22220  71.0006 286.0343 0015006 265.8732 120.1778 14.16876117739473
COSMOS 2221             
1 22236U 92080A   26192.87777953  .00000922  00000+0  78499-4 0  9990
2 22236  82.5044 160.1085 0015510 130.3175 229.9405 14.96598168799365
SL-16 R/B               
1 22285U 92093B   26193.18874262 -.00000173  00000+0 -64017-4 0  9995
2 22285  71.0222 102.9067 0002413 142.0731 218.0562 14.15466712730773
COSMOS 2228             
1 22286U 92094A   26193.20971715  .00001028  00000+0  85346-4 0  9997
2 22286  82.5189 118.0754 0016148 240.0375 119.9246 14.97670050794698
SL-16 R/B               
1 22566U 93016B   26192.74739402  .00000009  00000+0  29136-4 0  9999
2 22566  71.0084 314.6220 0008969 144.2267 215.9459 14.15311538719722
COSMOS 2242             
1 22626U 93024A   26193.11381285  .00000959  00000+0  80980-4 0  9997
2 22626  82.5197 147.6946 0014473 244.0250 115.9482 14.96979132799001
SL-16 R/B               
1 22803U 93059B   26192.98126054 -.00000251  00000+0 -10051-3 0  9995
2 22803  70.9905 109.0183 0016476  13.3502 346.8054 14.17250340697141
ARIANE 40 R/B           
1 22830U 93061H   26193.20380075  .00000076  00000+0  43684-4 0  9991
2 22830  98.4808 259.5398 0009468 275.6370  84.3735 14.32917815711934
COSMOS 2278             
1 23087U 94023A   26193.21204765 -.00000122  00000+0 -38874-4 0  9996
2 23087  71.0527 274.5679 0009804 210.1711 149.8848 14.14393403662411
SL-16 R/B               
1 23088U 94023B   26192.42503286 -.00000061  00000+0 -69680-5 0  9991
2 23088  70.9980 171.0292 0001480 142.1590 217.9637 14.15023863663590
SL-16 R/B               
1 23343U 94074B   26193.03004072  .00000215  00000+0  35341-4 0  9993
2 23343  97.6986 218.7149 0006910 163.7905 227.7510 14.79522673705632
SL-16 R/B               
1 23405U 94077B   26193.13566426 -.00000235  00000+0 -95768-4 0  9995
2 23405  70.9825  90.6765 0004089 305.7671  54.3071 14.15574886633843
ARIANE 40+ R/B          
1 23561U 95021B   26193.13535448  .00000117  00000+0  51049-4 0  9999
2 23561  98.4401 262.8487 0007816 124.3604 267.0722 14.39846545637151
